sat31280
1 31280U 99025BNN 20046.64986727  .00041580  00000-0  10119-2 0  9992
2 31280  97.9092 349.8631 0030127  12.5078 347.6908 15.40356118691717
